1 26871U 01031A   12055.35667701 -.00000297  00000-0  10000-3 0  4726
2 26871 002.0031 074.2306 0002555 312.6653 195.4719 01.00275961 38858